[{"OBJECT_NAME":"STARLINK-6198","OBJECT_ID":"2023-078B","EPOCH":"2026-03-09T22:24:02.398176","MEAN_MOTION":14.9832689,"ECCENTRICITY":0.00024824,"INCLINATION":70.0012,"RA_OF_ASC_NODE":323.7069,"ARG_OF_PERICENTER":251.903,"MEAN_ANOMALY":108.1859,"EPHEMERIS_TYPE":0,"CLASSIFICATION_TYPE":"U","NORAD_CAT_ID":56768,"ELEMENT_SET_NO":999,"REV_AT_EPOCH":15321,"BSTAR":-7.7001561e-5,"MEAN_MOTION_DOT":-1.011e-5,"MEAN_MOTION_DDOT":0},{"OBJECT_NAME":"RE","OBJECT_ID":"2012-048H","EPOCH":"2026-03-09T14:34:58.971936","MEAN_MOTION":15.18958187,"ECCENTRICITY":0.0110372,"INCLINATION":64.6561,"RA_OF_ASC_NODE":148.4253,"ARG_OF_PERICENTER":206.6471,"MEAN_ANOMALY":152.8958,"EPHEMERIS_TYPE":0,"CLASSIFICATION_TYPE":"U","NORAD_CAT_ID":38765,"ELEMENT_SET_NO":999,"REV_AT_EPOCH":10026,"BSTAR":0.00059519,"MEAN_MOTION_DOT":0.00014497,"MEAN_MOTION_DDOT":0}]
